[{"OBJECT_NAME":"EROS C3","OBJECT_ID":"2022-179A","EPOCH":"2026-03-09T22:55:46.034688","MEAN_MOTION":15.11815462,"ECCENTRICITY":0.00031674,"INCLINATION":139.3349,"RA_OF_ASC_NODE":157.9345,"ARG_OF_PERICENTER":31.9169,"MEAN_ANOMALY":328.1831,"EPHEMERIS_TYPE":0,"CLASSIFICATION_TYPE":"U","NORAD_CAT_ID":54880,"ELEMENT_SET_NO":999,"REV_AT_EPOCH":17731,"BSTAR":0.00041429699,"MEAN_MOTION_DOT":7.479e-5,"MEAN_MOTION_DDOT":0},{"OBJECT_NAME":"STARLINK-6199","OBJECT_ID":"2023-065BA","EPOCH":"2026-03-09T22:00:01.999584","MEAN_MOTION":15.12854683,"ECCENTRICITY":0.00012558,"INCLINATION":43.0009,"RA_OF_ASC_NODE":221.3675,"ARG_OF_PERICENTER":299.9377,"MEAN_ANOMALY":207.453,"EPHEMERIS_TYPE":0,"CLASSIFICATION_TYPE":"U","NORAD_CAT_ID":56551,"ELEMENT_SET_NO":999,"REV_AT_EPOCH":577,"BSTAR":0.0068922867,"MEAN_MOTION_DOT":0.00125298,"MEAN_MOTION_DDOT":0}]
